1 33063U 08031D   19282.40769975 -.00000044  00000-0  24554-4 0  9999
2 33063  48.4436  68.4311 0008219 149.9245 210.2141 14.72628540607635
1 33063U 08031D   19282.88265921 -.00000039 +00000-0 +25225-4 0  9993
2 33063 048.4436 066.1987 0008243 152.0843 208.0512 14.72628747607282
1 33063U 08031D   19283.42546993 -.00000039  00000-0  25189-4 0  9994
2 33063  48.4437  63.6472 0008264 154.5601 205.5719 14.72628936607782
1 33063U 08031D   19283.83257802 -.00000037 +00000-0 +25618-4 0  9992
2 33063 048.4438 061.7337 0008279 156.2255 203.9041 14.72629087607421
